{
  "links" : {
    "next" : "https://api.nasa.gov/neo/rest/v1/feed?start_date=2000-10-09&end_date=2000-10-09&detailed=true&api_key=t0TVs3DtDT2H8Oy2Zy8m2eVrNsAVKAexjcZXUckd",
    "prev" : "https://api.nasa.gov/neo/rest/v1/feed?start_date=2000-10-07&end_date=2000-10-07&detailed=true&api_key=t0TVs3DtDT2H8Oy2Zy8m2eVrNsAVKAexjcZXUckd",
    "self" : "https://api.nasa.gov/neo/rest/v1/feed?start_date=2000-10-08&end_date=2000-10-08&detailed=true&api_key=t0TVs3DtDT2H8Oy2Zy8m2eVrNsAVKAexjcZXUckd"
  },
  "element_count" : 7,
  "near_earth_objects" : {
    "2000-10-08" : [ {
      "links" : {
        "self" : "https://api.nasa.gov/neo/rest/v1/neo/3137846?api_key=t0TVs3DtDT2H8Oy2Zy8m2eVrNsAVKAexjcZXUckd"
      },
      "neo_reference_id" : "3137846",
      "name" : "(2002 TR67)",
      "nasa_jpl_url" : "http://ssd.jpl.nasa.gov/sbdb.cgi?sstr=3137846",
      "absolute_magnitude_h" : 22.7,
      "estimated_diameter" : {
        "kilometers" : {
          "estimated_diameter_min" : 0.0766575574,
          "estimated_diameter_max" : 0.1714115092
        },
        "meters" : {
          "estimated_diameter_min" : 76.6575573531,
          "estimated_diameter_max" : 171.4115092306
        },
        "miles" : {
          "estimated_diameter_min" : 0.0476327831,
          "estimated_diameter_max" : 0.1065101409
        },
        "feet" : {
          "estimated_diameter_min" : 251.5011804664,
          "estimated_diameter_max" : 562.3737359442
        }
      },
      "is_potentially_hazardous_asteroid" : false,
      "close_approach_data" : [ {
        "close_approach_date" : "2000-10-08",
        "epoch_date_close_approach" : 970988400000,
        "relative_velocity" : {
          "kilometers_per_second" : "12.747588946",
          "kilometers_per_hour" : "45891.3202055374",
          "miles_per_hour" : "28515.0817132685"
        },
        "miss_distance" : {
          "astronomical" : "0.2306187997",
          "lunar" : "89.7107162476",
          "kilometers" : "34500084",
          "miles" : "21437358"
        },
        "orbiting_body" : "Earth"
      } ],
      "orbital_data" : {
        "orbit_id" : "10",
        "orbit_determination_date" : "2017-04-06 09:14:45",
        "orbit_uncertainty" : "7",
        "minimum_orbit_intersection" : ".0398058",
        "jupiter_tisserand_invariant" : "4.327",
        "epoch_osculation" : "2458000.5",
        "eccentricity" : ".3416996665845315",
        "semi_major_axis" : "1.568384816047807",
        "inclination" : "11.97149877788956",
        "ascending_node_longitude" : "180.5961565171704",
        "orbital_period" : "717.4264275415784",
        "perihelion_distance" : "1.03246824732803",
        "perihelion_argument" : "161.2000407923363",
        "aphelion_distance" : "2.104301384767585",
        "perihelion_time" : "2458263.629488533807",
        "mean_anomaly" : "227.9633029455405",
        "mean_motion" : ".5017936142018357",
        "equinox" : "J2000"
      }
    }, {
      "links" : {
        "self" : "https://api.nasa.gov/neo/rest/v1/neo/3153509?api_key=t0TVs3DtDT2H8Oy2Zy8m2eVrNsAVKAexjcZXUckd"
      },
      "neo_reference_id" : "3153509",
      "name" : "(2003 HM)",
      "nasa_jpl_url" : "http://ssd.jpl.nasa.gov/sbdb.cgi?sstr=3153509",
      "absolute_magnitude_h" : 22.2,
      "estimated_diameter" : {
        "kilometers" : {
          "estimated_diameter_min" : 0.096506147,
          "estimated_diameter_max" : 0.2157943048
        },
        "meters" : {
          "estimated_diameter_min" : 96.5061469579,
          "estimated_diameter_max" : 215.7943048444
        },
        "miles" : {
          "estimated_diameter_min" : 0.059966121,
          "estimated_diameter_max" : 0.134088323
        },
        "feet" : {
          "estimated_diameter_min" : 316.6212271853,
          "estimated_diameter_max" : 707.9865871058
        }
      },
      "is_potentially_hazardous_asteroid" : true,
      "close_approach_data" : [ {
        "close_approach_date" : "2000-10-08",
        "epoch_date_close_approach" : 970988400000,
        "relative_velocity" : {
          "kilometers_per_second" : "20.4263388173",
          "kilometers_per_hour" : "73534.8197421004",
          "miles_per_hour" : "45691.6773003068"
        },
        "miss_distance" : {
          "astronomical" : "0.3944815293",
          "lunar" : "153.4533233643",
          "kilometers" : "59013600",
          "miles" : "36669352"
        },
        "orbiting_body" : "Earth"
      } ],
      "orbital_data" : {
        "orbit_id" : "40",
        "orbit_determination_date" : "2017-04-06 09:14:09",
        "orbit_uncertainty" : "0",
        "minimum_orbit_intersection" : ".00818766",
        "jupiter_tisserand_invariant" : "7.079",
        "epoch_osculation" : "2458000.5",
        "eccentricity" : ".2699265188790772",
        "semi_major_axis" : ".813463898120423",
        "inclination" : "26.27627097097949",
        "ascending_node_longitude" : "30.46993716420439",
        "orbital_period" : "267.9821407732401",
        "perihelion_distance" : ".5938884198669729",
        "perihelion_argument" : "19.29915166423972",
        "aphelion_distance" : "1.033039376373873",
        "perihelion_time" : "2458001.037078352364",
        "mean_anomaly" : "359.2785033872285",
        "mean_motion" : "1.343373103003245",
        "equinox" : "J2000"
      }
    }, {
      "links" : {
        "self" : "https://api.nasa.gov/neo/rest/v1/neo/3255465?api_key=t0TVs3DtDT2H8Oy2Zy8m2eVrNsAVKAexjcZXUckd"
      },
      "neo_reference_id" : "3255465",
      "name" : "(2004 SC56)",
      "nasa_jpl_url" : "http://ssd.jpl.nasa.gov/sbdb.cgi?sstr=3255465",
      "absolute_magnitude_h" : 22.7,
      "estimated_diameter" : {
        "kilometers" : {
          "estimated_diameter_min" : 0.0766575574,
          "estimated_diameter_max" : 0.1714115092
        },
        "meters" : {
          "estimated_diameter_min" : 76.6575573531,
          "estimated_diameter_max" : 171.4115092306
        },
        "miles" : {
          "estimated_diameter_min" : 0.0476327831,
          "estimated_diameter_max" : 0.1065101409
        },
        "feet" : {
          "estimated_diameter_min" : 251.5011804664,
          "estimated_diameter_max" : 562.3737359442
        }
      },
      "is_potentially_hazardous_asteroid" : false,
      "close_approach_data" : [ {
        "close_approach_date" : "2000-10-08",
        "epoch_date_close_approach" : 970988400000,
        "relative_velocity" : {
          "kilometers_per_second" : "13.9417339766",
          "kilometers_per_hour" : "50190.2423156077",
          "miles_per_hour" : "31186.2647321619"
        },
        "miss_distance" : {
          "astronomical" : "0.1263572741",
          "lunar" : "49.1529808044",
          "kilometers" : "18902780",
          "miles" : "11745642"
        },
        "orbiting_body" : "Earth"
      } ],
      "orbital_data" : {
        "orbit_id" : "26",
        "orbit_determination_date" : "2017-04-06 09:12:05",
        "orbit_uncertainty" : "1",
        "minimum_orbit_intersection" : ".0105801",
        "jupiter_tisserand_invariant" : "7.470",
        "epoch_osculation" : "2458000.5",
        "eccentricity" : ".428453878955348",
        "semi_major_axis" : ".7676388084156176",
        "inclination" : "4.782141855450332",
        "ascending_node_longitude" : "201.8978917992333",
        "orbital_period" : "245.6596398442915",
        "perihelion_distance" : ".438740983313285",
        "perihelion_argument" : "322.8877836093336",
        "aphelion_distance" : "1.09653663351795",
        "perihelion_time" : "2458033.089560492836",
        "mean_anomaly" : "312.2418831809025",
        "mean_motion" : "1.465442187524909",
        "equinox" : "J2000"
      }
    } ]
  }
}